{
"type": "FeatureCollection",
"name": "Ariquemes_RO",
"crs": { "type": "name", "properties": { "name": "urn:ogc:def:crs:OGC:1.3:CRS84" } },
"features": [
{ "type": "Feature", "properties": { "CD_MUN": "1100023", "NM_MUN": "Ariquemes", "CD_RGI": "110002", "NM_RGI": "Ariquemes", "CD_RGINT": "1101", "NM_RGINT": "Porto Velho", "CD_UF": "11", "NM_UF": "Rondônia", "SIGLA_UF": "RO", "CD_REGIAO": "1", "NM_REGIAO": "Norte", "SIGLA_RG": "N", "CD_CONCURB": null, "NM_CONCURB": null, "AREA_KM2": 4426.127 }, "geometry": { "type": "MultiPolygon", "coordinates": [ [ [ [ -62.699204199999897, -10.2668039 ], [ -62.7012587, -10.269274 ], [ -62.7022613, -10.2675480999999 ], [ -62.7046184, -10.2675563 ], [ -62.7042314, -10.2638818 ], [ -62.7083676, -10.2601223 ], [ -62.716101799999898, -10.2541131999999 ], [ -62.720223, -10.2504764 ], [ -62.720261999999899, -10.250447999999899 ], [ -62.7208542, -10.2500224 ], [ -62.721280299999897, -10.2496781999999 ], [ -62.7237846, -10.2478853 ], [ -62.724846699999901, -10.2472031999999 ], [ -62.7259673, -10.246706199999901 ], [ -62.726520299999898, -10.2465357 ], [ -62.7270124, -10.2464163 ], [ -62.7276165, -10.246318899999901 ], [ -62.7281354, -10.246260399999899 ], [ -62.7287724, -10.2462482 ], [ -62.7294362, -10.246282399999901 ], [ -62.7301585, -10.2463506 ], [ -62.731076899999898, -10.2464188 ], [ -62.7358321, -10.2468402 ], [ -62.7365386, -10.2468974999999 ], [ -62.737089099999899, -10.2469072 ], [ -62.737629899999902, -10.2468681999999 ], [ -62.7382317, -10.246782999999899 ], [ -62.7387578, -10.2466539 ], [ -62.7391476, -10.2465199 ], [ -62.739746899999901, -10.2462737999999 ], [ -62.7400562999999, -10.2461033 ], [ -62.7403388, -10.245940099999901 ], [ -62.7406458, -10.2457501 ], [ -62.7409162, -10.2455502999999 ], [ -62.741508199999899, -10.2450193 ], [ -62.7419929, -10.2444614 ], [ -62.7424022, -10.2438816 ], [ -62.7430429, -10.2429193999999 ], [ -62.7435447, -10.242154399999899 ], [ -62.7438614, -10.2416476999999 ], [ -62.744117199999899, -10.2411508 ], [ -62.744312099999902, -10.2407099 ], [ -62.7445021, -10.2401934 ], [ -62.744697, -10.2395625 ], [ -62.745134199999903, -10.237746399999899 ], [ -62.7453048, -10.237188499999901 ], [ -62.7455191, -10.2366916 ], [ -62.745843099999902, -10.2360801 ], [ -62.746066, -10.2357537 ], [ -62.746299899999897, -10.2354419 ], [ -62.7465131, -10.2351836 ], [ -62.7467055, -10.2349644 ], [ -62.747063599999898, -10.2346282 ], [ -62.747604399999901, -10.2342214 ], [ -62.7480356, -10.233924199999899 ], [ -62.7487323, -10.2334443 ], [ -62.7494704, -10.2329448999999 ], [ -62.7500429, -10.2325551 ], [ -62.7506349, -10.2321580999999 ], [ -62.7515996, -10.231513699999899 ], [ -62.753353499999903, -10.2303286 ], [ -62.755775, -10.228694 ], [ -62.7564546, -10.228236 ], [ -62.7569662, -10.2278974 ], [ -62.7570856, -10.2278097 ], [ -62.7575825, -10.2274613 ], [ -62.758014199999899, -10.2281095999999 ], [ -62.7611482, -10.2254783 ], [ -62.764896399999898, -10.2229695999999 ], [ -62.7671207, -10.2219509 ], [ -62.768869, -10.2207223 ], [ -62.7681496, -10.2175490999999 ], [ -62.7697353, -10.2158875 ], [ -62.7717304, -10.2149679 ], [ -62.7727801999999, -10.2126491 ], [ -62.7748154, -10.2099759 ], [ -62.7772224, -10.2083666999999 ], [ -62.7791194, -10.206805099999899 ], [ -62.781034, -10.2057141999999 ], [ -62.783585899999899, -10.2056195 ], [ -62.7866738, -10.205261899999901 ], [ -62.7894774, -10.2039971 ], [ -62.7933096, -10.201599799999901 ], [ -62.796624199999897, -10.198880099999901 ], [ -62.803890899999899, -10.1940048 ], [ -62.8073515, -10.1911185 ], [ -62.8176753, -10.183376699999901 ], [ -62.8225323, -10.1801179 ], [ -62.8285628, -10.1764183999999 ], [ -62.830468799999899, -10.1748271 ], [ -62.830787299999898, -10.1745602 ], [ -62.8325019, -10.1674451 ], [ -62.9003617, -10.1673431999999 ], [ -62.9997314, -10.1671714 ], [ -63.0571763, -10.1671344 ], [ -63.129927, -10.167087599999901 ], [ -63.2092653999999, -10.1670111 ], [ -63.2114558, -10.1650915 ], [ -63.213597299999897, -10.163695 ], [ -63.214399399999898, -10.1627045 ], [ -63.2143118, -10.1622004999999 ], [ -63.2137082, -10.1612446 ], [ -63.2120648, -10.1609230999999 ], [ -63.2099798, -10.1591847 ], [ -63.209119799999897, -10.157253399999901 ], [ -63.2078715, -10.1563563999999 ], [ -63.205813099999901, -10.155253199999899 ], [ -63.2058198, -10.1542507999999 ], [ -63.209403699999903, -10.1540898 ], [ -63.213479999999898, -10.1527093 ], [ -63.2140912, -10.1513972999999 ], [ -63.2117049, -10.1516162 ], [ -63.2105958, -10.1507966 ], [ -63.2102594999999, -10.148978499999901 ], [ -63.2098189, -10.1478804 ], [ -63.207873, -10.1453261999999 ], [ -63.2073445, -10.145010399999901 ], [ -63.206702999999898, -10.143689199999899 ], [ -63.2054778, -10.1427317 ], [ -63.204231999999898, -10.143121699999901 ], [ -63.2017035, -10.1456926999999 ], [ -63.1999269, -10.1454659 ], [ -63.197319999999898, -10.1434747 ], [ -63.1944991, -10.1420057 ], [ -63.1936156, -10.1409331999999 ], [ -63.1926755, -10.138744899999899 ], [ -63.192060899999902, -10.136706499999899 ], [ -63.191706699999898, -10.134545699999901 ], [ -63.1912326, -10.133612 ], [ -63.1903152, -10.133198799999899 ], [ -63.1892076, -10.1333455 ], [ -63.1861509, -10.1330378 ], [ -63.185255299999902, -10.1336681 ], [ -63.1834521, -10.137248 ], [ -63.1828146, -10.1389199 ], [ -63.1811761, -10.1397504 ], [ -63.1793259, -10.139244 ], [ -63.177455699999904, -10.1382978999999 ], [ -63.173342499999897, -10.134958 ], [ -63.172372, -10.133551 ], [ -63.1723707, -10.131593899999899 ], [ -63.1743172, -10.1262252 ], [ -63.1744504, -10.1236114 ], [ -63.175175599999903, -10.1206007 ], [ -63.1753174, -10.1178393 ], [ -63.1732319, -10.1154195999999 ], [ -63.172760599999897, -10.1146117 ], [ -63.1708401, -10.1138141 ], [ -63.167038799999901, -10.1149737 ], [ -63.1651813, -10.1147836 ], [ -63.162782, -10.1138668999999 ], [ -63.1612847, -10.1128985999999 ], [ -63.1592292999999, -10.111909899999899 ], [ -63.1585087999999, -10.111867199999899 ], [ -63.1566787, -10.1095341 ], [ -63.155487999999899, -10.1086538 ], [ -63.154646399999898, -10.107756799999899 ], [ -63.1537061, -10.1064077999999 ], [ -63.153539, -10.1057317 ], [ -63.151814199999897, -10.1041094 ], [ -63.1510646, -10.1037163 ], [ -63.150479399999902, -10.1011515 ], [ -63.149701799999903, -10.099808699999899 ], [ -63.1488446, -10.098874599999901 ], [ -63.147086199999897, -10.0974765 ], [ -63.1463158, -10.0962906999999 ], [ -63.1462882, -10.094165299999901 ], [ -63.1465114, -10.0937982999999 ], [ -63.1470466, -10.0929143999999 ], [ -63.1470983, -10.0920044 ], [ -63.147069799999898, -10.0910699 ], [ -63.146192799999902, -10.0891161 ], [ -63.146138999999899, -10.0869350999999 ], [ -63.1462938, -10.0853202 ], [ -63.1476567, -10.083341699999901 ], [ -63.148152799999899, -10.0819782999999 ], [ -63.1482055, -10.0807824 ], [ -63.1469476, -10.080261199999899 ], [ -63.1457394, -10.0794321999999 ], [ -63.1452164, -10.077921499999899 ], [ -63.144980099999898, -10.0764156 ], [ -63.146021, -10.0738304 ], [ -63.145817, -10.0727211 ], [ -63.1449254, -10.071630599999899 ], [ -63.1429059, -10.069966 ], [ -63.1412801, -10.0679906 ], [ -63.1402290999999, -10.0661701 ], [ -63.1395739, -10.063308699999901 ], [ -63.1378951, -10.0608129 ], [ -63.135481899999903, -10.0581637999999 ], [ -63.1332538999999, -10.0566031 ], [ -63.1326251, -10.0552498 ], [ -63.1320469, -10.0545230999999 ], [ -63.1296886, -10.053742199999901 ], [ -63.1284041, -10.0520789 ], [ -63.1287158, -10.0477107999999 ], [ -63.1296321, -10.0450048 ], [ -63.129788699999899, -10.0434433999999 ], [ -63.1293696, -10.0421441999999 ], [ -63.128320899999899, -10.0411043 ], [ -63.1266262, -10.037902 ], [ -63.122735, -10.0364756 ], [ -63.1205325, -10.036165599999901 ], [ -63.1208738, -10.0340327 ], [ -63.1219215, -10.0314830999999 ], [ -63.122548799999898, -10.0290388 ], [ -63.122024699999898, -10.0278943 ], [ -63.120947, -10.0272454 ], [ -63.1180917, -10.0248794999999 ], [ -63.117042599999898, -10.0231104 ], [ -63.1167283, -10.0218636999999 ], [ -63.1145789, -10.0200967 ], [ -63.1142655, -10.0184292 ], [ -63.1140521, -10.0150007 ], [ -63.1159908, -10.0138537999999 ], [ -63.117354099999901, -10.0118782 ], [ -63.117563399999902, -10.0101089 ], [ -63.1175613999999, -10.0080273999999 ], [ -63.1169846, -10.0054253 ], [ -63.1151353, -10.0026781 ], [ -63.1146773, -10.0019973 ], [ -63.113629199999899, -10.0011635 ], [ -63.1131063, -10.0004145999999 ], [ -63.1230813, -10.0004225 ], [ -63.151922, -10.0004425999999 ], [ -63.169226599999902, -10.0004491 ], [ -63.1730762, -10.0004506 ], [ -63.1763554, -10.0004518 ], [ -63.176566099999903, -10.0004519 ], [ -63.1774695, -10.0004521999999 ], [ -63.183362, -10.000454499999901 ], [ -63.2627684999999, -10.0004843999999 ], [ -63.2849889, -10.0004928 ], [ -63.3128022, -10.0005034 ], [ -63.3554955, -10.0005194999999 ], [ -63.4270189, -10.0005161999999 ], [ -63.4325876, -10.0005158 ], [ -63.5004786, -10.0004984999999 ], [ -63.5969729, -10.0003823 ], [ -63.597873499999899, -9.999058399999971 ], [ -63.597482699999901, -9.998094299999931 ], [ -63.598378, -9.996975 ], [ -63.5993736, -9.99573039999996 ], [ -63.5999037, -9.99425209999993 ], [ -63.601553099999897, -9.99229929999996 ], [ -63.6028735, -9.990053499999931 ], [ -63.604259699999901, -9.98916549999996 ], [ -63.6048757, -9.98806039999994 ], [ -63.6050964, -9.98660869999998 ], [ -63.6048503, -9.985661 ], [ -63.603957299999898, -9.98511529999996 ], [ -63.603619099999896, -9.984171099999971 ], [ -63.6045146, -9.982673499999979 ], [ -63.605788, -9.98192259999996 ], [ -63.6077323, -9.981643399999941 ], [ -63.607985, -9.978466099999929 ], [ -63.6061797999999, -9.97601289999994 ], [ -63.6059784, -9.97361229999996 ], [ -63.606213, -9.972505499999951 ], [ -63.607427, -9.972246199999971 ], [ -63.608516199999897, -9.971406 ], [ -63.609568599999903, -9.97188289999997 ], [ -63.6104577, -9.971403499999949 ], [ -63.6110681, -9.97011019999997 ], [ -63.6112577, -9.96908679999996 ], [ -63.6123697, -9.96756609999994 ], [ -63.613182299999899, -9.96690869999998 ], [ -63.6142361, -9.96681449999994 ], [ -63.6155421, -9.96624389999994 ], [ -63.6159544, -9.964727 ], [ -63.6168453, -9.96381839999998 ], [ -63.6165979, -9.961190699999969 ], [ -63.6180135, -9.95876749999996 ], [ -63.617212, -9.956222399999939 ], [ -63.6173691, -9.954806499999959 ], [ -63.6182223, -9.95382589999997 ], [ -63.6179812, -9.95208669999994 ], [ -63.6172027, -9.94951419999995 ], [ -63.6161729, -9.948657499999969 ], [ -63.6172055, -9.945033499999971 ], [ -63.6178996, -9.94410289999996 ], [ -63.6173408, -9.94186049999996 ], [ -63.6173999, -9.940432199999981 ], [ -63.6169858, -9.93910479999994 ], [ -63.6171256, -9.93796859999998 ], [ -63.616903099999902, -9.93688639999993 ], [ -63.616037499999898, -9.936027699999951 ], [ -63.616034, -9.932814 ], [ -63.617041099999902, -9.93138649999997 ], [ -63.6169345, -9.92894849999993 ], [ -63.6159284, -9.92733979999997 ], [ -63.615065399999899, -9.926598699999939 ], [ -63.6140718999999, -9.926597299999971 ], [ -63.6130429, -9.926038499999949 ], [ -63.6115422, -9.92557329999994 ], [ -63.6106578, -9.924598099999971 ], [ -63.6108708, -9.92321809999993 ], [ -63.6103957, -9.921365899999961 ], [ -63.6097314, -9.92070749999993 ], [ -63.6074007, -9.919995299999931 ], [ -63.6069861, -9.91895689999996 ], [ -63.605515399999902, -9.917990199999959 ], [ -63.603926, -9.91720439999995 ], [ -63.6031250999999, -9.91630629999997 ], [ -63.6030094, -9.915222799999979 ], [ -63.601508899999899, -9.91479139999996 ], [ -63.600952499999899, -9.913211799999941 ], [ -63.6012373, -9.91194389999993 ], [ -63.600767, -9.90838279999997 ], [ -63.599925299999903, -9.906155499999951 ], [ -63.5980665, -9.90442339999993 ], [ -63.5966546, -9.904426599999971 ], [ -63.5943065, -9.902774299999979 ], [ -63.593898, -9.901880099999969 ], [ -63.5930958, -9.90093109999998 ], [ -63.5923155999999, -9.89955219999996 ], [ -63.591849, -9.897637199999959 ], [ -63.5912571, -9.896395699999969 ], [ -63.590845, -9.894471099999979 ], [ -63.5910401, -9.89306479999993 ], [ -63.5906524, -9.891692699999959 ], [ -63.5878967, -9.888261799999951 ], [ -63.5869865, -9.887951 ], [ -63.5857076, -9.887887 ], [ -63.584512199999899, -9.88752979999998 ], [ -63.5838721, -9.886600199999981 ], [ -63.5841485, -9.885353 ], [ -63.5841462, -9.883997099999929 ], [ -63.5841458, -9.88379249999997 ], [ -63.5830152, -9.88252869999997 ], [ -63.581988899999899, -9.88174459999993 ], [ -63.580844199999902, -9.88034019999998 ], [ -63.5794557, -9.87811279999994 ], [ -63.5791477, -9.87662409999996 ], [ -63.5803203, -9.873984 ], [ -63.5801006, -9.87301929999995 ], [ -63.5804532, -9.87166119999995 ], [ -63.5810986, -9.870617 ], [ -63.5812629, -9.869683499999949 ], [ -63.5831256, -9.86784759999995 ], [ -63.5831757999999, -9.866506 ], [ -63.5857379, -9.86425689999993 ], [ -63.5876747, -9.861268 ], [ -63.588177899999899, -9.859914499999951 ], [ -63.588903699999904, -9.85678289999993 ], [ -63.5889309, -9.85205219999995 ], [ -63.5881264, -9.85042319999997 ], [ -63.5875348, -9.84986159999994 ], [ -63.5875073999999, -9.84983549999993 ], [ -63.58715, -9.849495799999939 ], [ -63.586510099999899, -9.848476 ], [ -63.5859852, -9.846077099999951 ], [ -63.585422799999897, -9.844680399999961 ], [ -63.584542, -9.84387429999998 ], [ -63.5831512, -9.84371869999995 ], [ -63.5824525, -9.84095619999994 ], [ -63.5828779, -9.839621 ], [ -63.583649799999897, -9.83831629999997 ], [ -63.5834762, -9.836896199999959 ], [ -63.5823743, -9.83268419999996 ], [ -63.581847799999899, -9.83179689999997 ], [ -63.580841399999898, -9.831717 ], [ -63.580537799999902, -9.83005779999996 ], [ -63.580483399999899, -9.829157199999941 ], [ -63.580676099999899, -9.82822569999996 ], [ -63.581482999999899, -9.82774719999998 ], [ -63.5812635999999, -9.826441699999981 ], [ -63.5805377, -9.82506189999998 ], [ -63.5804276, -9.824002299999959 ], [ -63.5812645, -9.823363299999929 ], [ -63.5812599, -9.82242019999995 ], [ -63.5803978, -9.819266 ], [ -63.5802641, -9.81811689999995 ], [ -63.5812922, -9.816776599999971 ], [ -63.582347599999899, -9.816094899999939 ], [ -63.583097699999897, -9.81488629999996 ], [ -63.583205899999903, -9.813867899999931 ], [ -63.581673, -9.80978389999996 ], [ -63.5813044, -9.808297799999931 ], [ -63.580821899999897, -9.80398729999996 ], [ -63.5800363, -9.803339 ], [ -63.5805409, -9.799763899999959 ], [ -63.5812332, -9.799012 ], [ -63.580430299999897, -9.797455099999979 ], [ -63.5787308, -9.795762399999941 ], [ -63.5786732, -9.794719199999969 ], [ -63.5790666, -9.793155699999939 ], [ -63.580405, -9.792139599999929 ], [ -63.5806234, -9.790864699999929 ], [ -63.57954, -9.789377099999969 ], [ -63.578117, -9.788099599999949 ], [ -63.5740099, -9.78541739999997 ], [ -63.573287999999899, -9.78441849999996 ], [ -63.573268299999903, -9.78326169999997 ], [ -63.5730427, -9.78164039999996 ], [ -63.5719232, -9.781111199999939 ], [ -63.571263, -9.776845599999939 ], [ -63.5701589, -9.773659499999949 ], [ -63.570321, -9.770997699999951 ], [ -63.5714325, -9.769765799999959 ], [ -63.5714531, -9.76864539999997 ], [ -63.570623, -9.765407099999949 ], [ -63.5704691, -9.764116599999969 ], [ -63.5717771, -9.76116069999995 ], [ -63.5717597, -9.759922699999951 ], [ -63.5711163, -9.759110699999949 ], [ -63.5707963, -9.758067599999951 ], [ -63.568029399999901, -9.75822429999994 ], [ -63.566499399999898, -9.757862 ], [ -63.5662927, -9.757809899999931 ], [ -63.5660574999999, -9.757581399999941 ], [ -63.5658895, -9.757218399999941 ], [ -63.5654727, -9.75700339999997 ], [ -63.565197199999901, -9.756506 ], [ -63.565210599999901, -9.756223699999961 ], [ -63.5652845, -9.755544799999941 ], [ -63.5653517, -9.754966799999981 ], [ -63.565600399999902, -9.754724799999959 ], [ -63.565997, -9.75450969999997 ], [ -63.5660642, -9.754291299999981 ], [ -63.5662659, -9.754082899999959 ], [ -63.5663499, -9.753810699999971 ], [ -63.5663263, -9.75353509999997 ], [ -63.5661617, -9.75326959999995 ], [ -63.565704599999897, -9.753168799999971 ], [ -63.5655953999999, -9.75299409999997 ], [ -63.565592, -9.752681499999939 ], [ -63.5656845, -9.752337 ], [ -63.5656256, -9.752011099999949 ], [ -63.565620599999903, -9.751843 ], [ -63.5656810999999, -9.751493499999979 ], [ -63.5656643, -9.751194399999971 ], [ -63.565556699999902, -9.750935599999931 ], [ -63.5655836, -9.750357599999971 ], [ -63.5654559, -9.750119 ], [ -63.5653114, -9.749961 ], [ -63.5651299, -9.749900499999971 ], [ -63.565019, -9.74974929999996 ], [ -63.5649653, -9.749130899999949 ], [ -63.5648644, -9.74894609999996 ], [ -63.5648207999999, -9.74848909999997 ], [ -63.5649619, -9.748210099999939 ], [ -63.565244199999903, -9.74792109999993 ], [ -63.5652845, -9.747743 ], [ -63.5648241, -9.747534599999939 ], [ -63.5645049, -9.74716829999994 ], [ -63.5642797, -9.74660369999998 ], [ -63.5639537, -9.74618359999994 ], [ -63.563506699999898, -9.745874399999931 ], [ -63.5633420999999, -9.74569629999996 ], [ -63.5632211, -9.745434199999981 ], [ -63.563103399999903, -9.745283 ], [ -63.5629556, -9.74516869999997 ], [ -63.5628111, -9.74497709999997 ], [ -63.5627405, -9.74464439999997 ], [ -63.563170699999901, -9.74434529999996 ], [ -63.5634563, -9.74421429999995 ], [ -63.5638159, -9.743595899999949 ], [ -63.5637386, -9.743155599999969 ], [ -63.5638159, -9.742806099999941 ], [ -63.5641117, -9.742470099999929 ], [ -63.564225899999897, -9.74187189999998 ], [ -63.5642662, -9.74159959999997 ], [ -63.564407399999901, -9.741445099999959 ], [ -63.564634199999901, -9.741401399999971 ], [ -63.564809, -9.74152739999994 ], [ -63.5649888, -9.741784499999939 ], [ -63.565192099999898, -9.741876899999969 ], [ -63.565477799999897, -9.74184829999996 ], [ -63.565813799999901, -9.741646699999929 ], [ -63.5659163, -9.741478699999959 ], [ -63.5661129, -9.74105859999997 ], [ -63.5661995, -9.740636 ], [ -63.566349, -9.740349499999979 ], [ -63.5664465, -9.740126 ], [ -63.5665792, -9.739922699999971 ], [ -63.5666414, -9.73959159999993 ], [ -63.566421299999902, -9.738721199999929 ], [ -63.5663726, -9.738430499999939 ], [ -63.5661827, -9.738223799999959 ], [ -63.5661289, -9.73784239999998 ], [ -63.566184399999898, -9.73766929999994 ], [ -63.5662146, -9.737417299999951 ], [ -63.5661928, -9.737146699999929 ], [ -63.5663053, -9.73704929999997 ], [ -63.5664532, -9.73689129999997 ], [ -63.566633, -9.73675859999997 ], [ -63.5668178, -9.736516599999961 ], [ -63.5669943, -9.73607129999994 ], [ -63.5670291, -9.73570669999998 ], [ -63.5669909, -9.735394099999951 ], [ -63.5668691, -9.735244199999951 ], [ -63.5668006, -9.735106799999929 ], [ -63.5666494, -9.734661499999961 ], [ -63.5666158, -9.73438259999995 ], [ -63.5665183, -9.734187599999929 ], [ -63.5665284, -9.73397589999996 ], [ -63.566383899999899, -9.733801199999959 ], [ -63.566094899999896, -9.733781 ], [ -63.565923499999897, -9.733828099999929 ], [ -63.565609299999899, -9.734043099999949 ], [ -63.565289999999898, -9.73416409999993 ], [ -63.565128699999903, -9.73415739999996 ], [ -63.5649539, -9.73405659999997 ], [ -63.5648128, -9.73391539999994 ], [ -63.564722, -9.73366669999996 ], [ -63.5647523, -9.73336759999995 ], [ -63.5648044, -9.73326179999998 ], [ -63.5649253999999, -9.733211399999959 ], [ -63.5650027, -9.732919 ], [ -63.5651976, -9.73258119999997 ], [ -63.565616, -9.73199649999998 ], [ -63.5659117, -9.73164019999996 ], [ -63.566022599999897, -9.73136469999997 ], [ -63.5660025, -9.730746299999961 ], [ -63.5659689, -9.730474099999981 ], [ -63.5660781, -9.73020779999996 ], [ -63.5662511, -9.729996 ], [ -63.5664267, -9.72990779999998 ], [ -63.5665906, -9.729743099999951 ], [ -63.5670023, -9.72908529999995 ], [ -63.567329899999898, -9.728685399999961 ], [ -63.567672699999903, -9.72824849999995 ], [ -63.5677567, -9.72807369999998 ], [ -63.5678172, -9.727673799999931 ], [ -63.5677534, -9.72754269999996 ], [ -63.5677282, -9.726682399999961 ], [ -63.5676407999999, -9.72606069999995 ], [ -63.5677416, -9.72582709999995 ], [ -63.5679517, -9.725674199999959 ], [ -63.5682424, -9.72563219999995 ], [ -63.568581799999897, -9.72570949999994 ], [ -63.5688506, -9.725578399999961 ], [ -63.5690422, -9.72524909999993 ], [ -63.5691128, -9.72485249999994 ], [ -63.569270699999898, -9.72460719999998 ], [ -63.5695799, -9.72444589999998 ], [ -63.569784899999902, -9.72435509999997 ], [ -63.5698891, -9.72404259999996 ], [ -63.5697731, -9.72363259999997 ], [ -63.569771499999902, -9.723394 ], [ -63.5699597, -9.72299069999997 ], [ -63.570584799999899, -9.72224459999995 ], [ -63.5711191, -9.72166989999994 ], [ -63.5712468, -9.721461599999939 ], [ -63.5716098, -9.72126659999998 ], [ -63.571878599999899, -9.72137749999996 ], [ -63.5720097, -9.721226299999961 ], [ -63.572013, -9.72094739999994 ], [ -63.5718988, -9.720739 ], [ -63.571525699999903, -9.72050379999996 ], [ -63.5714426, -9.72023739999997 ], [ -63.571519, -9.719910599999929 ], [ -63.5718795, -9.71930319999996 ], [ -63.5718525999999, -9.71894689999993 ], [ -63.5716652, -9.718771299999959 ], [ -63.571523199999902, -9.718463 ], [ -63.5715367, -9.718200899999941 ], [ -63.5717988, -9.71801939999995 ], [ -63.572034099999897, -9.71826809999993 ], [ -63.572242399999901, -9.718295 ], [ -63.5722559, -9.717905099999941 ], [ -63.572081099999899, -9.717528699999949 ], [ -63.571987, -9.71705819999994 ], [ -63.5721013, -9.716702 ], [ -63.5726323, -9.716248299999959 ], [ -63.572709599999897, -9.715966 ], [ -63.573035499999897, -9.71556269999996 ], [ -63.5729918, -9.715109 ], [ -63.5735478, -9.714506799999979 ], [ -63.5735481, -9.714505699999959 ], [ -63.570826699999898, -9.71447549999993 ], [ -63.570503599999903, -9.714489699999939 ], [ -63.569392299999897, -9.71497009999996 ], [ -63.5682724, -9.715286799999941 ], [ -63.5669371, -9.715897499999929 ], [ -63.518871299999901, -9.71543959999997 ], [ -63.5185979, -9.715433 ], [ -63.5174888, -9.71542719999997 ], [ -63.5107398, -9.715367799999971 ], [ -63.5087366, -9.715343099999931 ], [ -63.5034906, -9.71529339999995 ], [ -63.5028346, -9.71521609999996 ], [ -63.5020144, -9.715111499999979 ], [ -63.501525199999897, -9.71498709999997 ], [ -63.5010048, -9.71479469999997 ], [ -63.5002894, -9.714382499999941 ], [ -63.499632, -9.71437859999997 ], [ -63.499052499999898, -9.714382499999941 ], [ -63.4990587, -9.714985899999929 ], [ -63.4990617, -9.760062799999959 ], [ -63.499061299999902, -9.76180219999998 ], [ -63.4990663, -9.783378499999969 ], [ -63.499072199999901, -9.80725659999996 ], [ -63.49908, -9.83339179999996 ], [ -63.4053483, -9.833266699999969 ], [ -63.3761541, -9.833227799999969 ], [ -63.3187876, -9.83315129999994 ], [ -63.2919936, -9.83310759999995 ], [ -63.29171, -9.831295399999931 ], [ -63.2905307999999, -9.828801099999961 ], [ -63.2903279, -9.82756509999996 ], [ -63.2903161, -9.82749339999998 ], [ -63.2898413, -9.826239099999951 ], [ -63.290338399999897, -9.824752199999979 ], [ -63.291511, -9.823030099999929 ], [ -63.291479099999897, -9.822575499999971 ], [ -63.2910929, -9.822139499999929 ], [ -63.2894011, -9.821386099999931 ], [ -63.2884579, -9.821152699999971 ], [ -63.287446, -9.82148989999996 ], [ -63.287035699999898, -9.82110189999997 ], [ -63.286705099999899, -9.82043749999997 ], [ -63.286561699999901, -9.819585 ], [ -63.286701, -9.81740329999997 ], [ -63.286484099999903, -9.814843599999961 ], [ -63.2861228, -9.814287199999971 ], [ -63.285952, -9.81346579999996 ], [ -63.2864837, -9.813530899999931 ], [ -63.2862401, -9.812716799999979 ], [ -63.2869562, -9.81246529999993 ], [ -63.2869876, -9.812285 ], [ -63.2865159, -9.809649099999939 ], [ -63.2876211, -9.80785909999997 ], [ -63.2878127, -9.80669669999997 ], [ -63.2895053, -9.80387549999995 ], [ -63.289204, -9.800320699999929 ], [ -63.288900199999901, -9.79924209999996 ], [ -63.288899899999898, -9.79760709999994 ], [ -63.2883749, -9.795146799999941 ], [ -63.2890652, -9.795243399999951 ], [ -63.2895394, -9.79501619999996 ], [ -63.2894262, -9.794654099999949 ], [ -63.288477199999903, -9.793625099999931 ], [ -63.288811699999897, -9.79280429999994 ], [ -63.2900094, -9.791976299999931 ], [ -63.2908733, -9.792507499999941 ], [ -63.292703199999899, -9.79477709999998 ], [ -63.293897399999899, -9.793693 ], [ -63.293872399999898, -9.79283549999997 ], [ -63.2932628, -9.790282899999969 ], [ -63.2933136, -9.78981809999993 ], [ -63.2937605, -9.789822099999981 ], [ -63.294008899999902, -9.78960819999998 ], [ -63.2938184, -9.788635499999939 ], [ -63.293956099999903, -9.78834339999997 ], [ -63.2947065, -9.78840349999996 ], [ -63.295675, -9.787143199999949 ], [ -63.2325187, -9.78719069999994 ], [ -63.215430599999898, -9.78685209999998 ], [ -63.184408399999903, -9.78567289999995 ], [ -63.1634938, -9.785114 ], [ -63.1371204, -9.78412879999996 ], [ -63.1065895999999, -9.782984299999949 ], [ -63.0901289, -9.782367299999979 ], [ -63.089886099999902, -9.781326499999979 ], [ -63.0925899, -9.77085189999997 ], [ -63.0942818, -9.762642199999959 ], [ -63.0958676, -9.75768739999995 ], [ -63.0972824, -9.75487949999996 ], [ -63.0981791, -9.75389719999993 ], [ -63.1015925, -9.75255909999993 ], [ -63.0995088, -9.75207709999995 ], [ -63.075979, -9.75217849999996 ], [ -63.073426, -9.751772099999931 ], [ -63.0726983, -9.75089689999993 ], [ -63.0711515, -9.750643599999931 ], [ -63.0686449, -9.752005 ], [ -63.0340962, -9.751813099999939 ], [ -63.032640199999904, -9.750973699999969 ], [ -63.0317003, -9.749934899999969 ], [ -63.030475399999901, -9.74911179999998 ], [ -63.0292238, -9.748748699999959 ], [ -63.028090399999897, -9.748608599999949 ], [ -63.0263165, -9.749092799999969 ], [ -63.025314599999902, -9.74979909999996 ], [ -63.0238476, -9.750472799999949 ], [ -63.023283299999903, -9.750172099999929 ], [ -63.0227053, -9.74902729999997 ], [ -63.022504899999902, -9.748093399999959 ], [ -63.0214243, -9.746165499999959 ], [ -63.0205878, -9.745946099999969 ], [ -63.0176458, -9.74780129999994 ], [ -63.016088599999897, -9.74847549999993 ], [ -63.0155101, -9.747347699999979 ], [ -63.014143499999903, -9.74734759999996 ], [ -63.013031399999903, -9.74802809999994 ], [ -63.0121169, -9.748936699999939 ], [ -63.010751899999903, -9.74970689999998 ], [ -63.009059299999898, -9.750160299999949 ], [ -63.0062583, -9.751467599999961 ], [ -63.0054541, -9.751059599999961 ], [ -63.0042554, -9.749482299999951 ], [ -63.0015935, -9.748819 ], [ -62.9990334, -9.75060959999996 ], [ -62.9972041, -9.750424899999929 ], [ -62.996315599999903, -9.751925299999931 ], [ -62.995254, -9.751102199999931 ], [ -62.990696899999897, -9.75176619999996 ], [ -62.982564399999902, -9.75180009999997 ], [ -62.9794811, -9.751468399999959 ], [ -62.9783143, -9.750695299999959 ], [ -62.977065599999897, -9.751048699999959 ], [ -62.9757031, -9.750932199999969 ], [ -62.974863099999901, -9.751598399999979 ], [ -62.9643113, -9.751477699999951 ], [ -62.9598129, -9.75100379999998 ], [ -62.9543052, -9.75157849999994 ], [ -62.954067, -9.75160339999996 ], [ -62.9424215, -9.751464799999949 ], [ -62.9365068, -9.750903899999971 ], [ -62.934643999999899, -9.751783399999971 ], [ -62.932034799999897, -9.751752599999969 ], [ -62.930315, -9.750519 ], [ -62.9208948, -9.75108359999996 ], [ -62.9035627, -9.750726 ], [ -62.8946761, -9.751538899999961 ], [ -62.892590599999899, -9.75059959999993 ], [ -62.8838077, -9.750413799999929 ], [ -62.8777618, -9.75125769999994 ], [ -62.8539524, -9.751254699999951 ], [ -62.8460914, -9.75049 ], [ -62.8380907, -9.75098829999996 ], [ -62.8368993, -9.75106349999993 ], [ -62.835254, -9.75293129999994 ], [ -62.834345, -9.75478639999994 ], [ -62.8334532, -9.757284799999979 ], [ -62.8321989, -9.759768399999929 ], [ -62.829503, -9.761625599999951 ], [ -62.8273962, -9.762250799999951 ], [ -62.825563299999899, -9.763649599999949 ], [ -62.819116999999899, -9.77116389999998 ], [ -62.8145905, -9.773103699999981 ], [ -62.812197399999903, -9.77431659999996 ], [ -62.8071431, -9.779393 ], [ -62.8059726, -9.78197919999997 ], [ -62.8057034, -9.783827 ], [ -62.8045355, -9.78595989999997 ], [ -62.802089, -9.787775 ], [ -62.8006146, -9.78863709999996 ], [ -62.799170199999899, -9.790211 ], [ -62.7978734, -9.792199699999969 ], [ -62.7968673, -9.79555329999994 ], [ -62.7969782, -9.79832229999994 ], [ -62.7963164, -9.800459199999979 ], [ -62.794506199999901, -9.801721599999951 ], [ -62.792310299999897, -9.802127399999961 ], [ -62.7899826, -9.801621099999981 ], [ -62.787835599999902, -9.800810499999949 ], [ -62.784840899999899, -9.800698599999979 ], [ -62.7823693, -9.80136979999997 ], [ -62.776975299999897, -9.804619499999941 ], [ -62.7744284, -9.808055699999951 ], [ -62.770160099999899, -9.80885249999994 ], [ -62.7636812, -9.80916029999997 ], [ -62.7635457, -9.809208499999951 ], [ -62.7608944, -9.80929229999998 ], [ -62.7572594, -9.809902 ], [ -62.7553812, -9.810600099999929 ], [ -62.7545046, -9.810656399999971 ], [ -62.7502812, -9.810566599999961 ], [ -62.748768799999901, -9.809753899999979 ], [ -62.7481729, -9.809633199999951 ], [ -62.7455342, -9.811231499999961 ], [ -62.7431864, -9.813033299999971 ], [ -62.740898, -9.813875899999969 ], [ -62.7380846, -9.814107799999929 ], [ -62.7370872, -9.813873899999979 ], [ -62.7364423, -9.81445459999998 ], [ -62.7356766999999, -9.816436099999979 ], [ -62.7352385, -9.81900659999997 ], [ -62.734669799999899, -9.820055799999979 ], [ -62.732813899999897, -9.821496399999941 ], [ -62.7307307, -9.82275759999993 ], [ -62.7164850999999, -9.825389399999951 ], [ -62.7127349, -9.825648499999939 ], [ -62.708090599999899, -9.83184449999993 ], [ -62.7063937, -9.83347509999993 ], [ -62.702227, -9.834546099999949 ], [ -62.698841899999898, -9.83454279999995 ], [ -62.695086699999898, -9.835623 ], [ -62.6939527, -9.836885099999961 ], [ -62.692422, -9.837666399999931 ], [ -62.6904241, -9.83822509999993 ], [ -62.689085, -9.83938879999994 ], [ -62.6847822, -9.842530899999931 ], [ -62.6827777, -9.846096699999981 ], [ -62.68031, -9.84766019999995 ], [ -62.6783131, -9.845905199999949 ], [ -62.677089099999897, -9.843404299999969 ], [ -62.6767566, -9.84081719999995 ], [ -62.676727099999901, -9.83768229999993 ], [ -62.676253899999899, -9.833871699999969 ], [ -62.675062099999899, -9.831166 ], [ -62.670340199999899, -9.825642 ], [ -62.6676464, -9.82313619999996 ], [ -62.6650031, -9.819353499999981 ], [ -62.66079, -9.81126809999995 ], [ -62.659813799999903, -9.80744679999998 ], [ -62.6569182, -9.78770649999996 ], [ -62.6565327, -9.784111699999929 ], [ -62.6546155999999, -9.78087739999995 ], [ -62.651980599999902, -9.77874349999996 ], [ -62.6448361, -9.774721 ], [ -62.6431959, -9.773355299999929 ], [ -62.6396405, -9.77231849999993 ], [ -62.6338894, -9.77096009999997 ], [ -62.6298393, -9.769128799999979 ], [ -62.6266476, -9.76031839999996 ], [ -62.6221945, -9.751402599999951 ], [ -62.6167, -9.742988499999971 ], [ -62.6131141, -9.73898829999996 ], [ -62.610146, -9.735995 ], [ -62.6068988, -9.73486749999995 ], [ -62.6031138, -9.735087 ], [ -62.5991734, -9.73652879999997 ], [ -62.5977783, -9.735419399999961 ], [ -62.5973369, -9.733890899999951 ], [ -62.595449, -9.730251399999929 ], [ -62.5932026999999, -9.728337499999951 ], [ -62.5853114, -9.724178 ], [ -62.5829724, -9.72262579999995 ], [ -62.5830889, -9.71793439999993 ], [ -62.584559, -9.71270129999994 ], [ -62.585249599999898, -9.71087709999995 ], [ -62.5852333, -9.70629549999995 ], [ -62.5845035, -9.70343389999994 ], [ -62.5830111, -9.701755099999961 ], [ -62.580724099999898, -9.70076329999995 ], [ -62.5730058, -9.69975559999995 ], [ -62.5697238, -9.69863709999993 ], [ -62.5673121, -9.69697109999993 ], [ -62.5653374, -9.69467509999993 ], [ -62.5651452, -9.69289679999997 ], [ -62.566639699999897, -9.69070659999994 ], [ -62.5672537, -9.689124899999969 ], [ -62.565924499999902, -9.68626009999997 ], [ -62.560779099999898, -9.682584 ], [ -62.5581753, -9.679419499999939 ], [ -62.5577239, -9.67744359999995 ], [ -62.558982, -9.67208949999997 ], [ -62.5587247, -9.669896899999969 ], [ -62.5565658, -9.669160099999941 ], [ -62.5547556, -9.67076939999993 ], [ -62.555195099999899, -9.671812399999959 ], [ -62.5508397, -9.68228069999998 ], [ -62.548893899999896, -9.690410899999961 ], [ -62.547170499999901, -9.693208099999939 ], [ -62.543979599999901, -9.70122689999994 ], [ -62.541086, -9.70696789999994 ], [ -62.539698799999897, -9.715404 ], [ -62.538645099999897, -9.716047399999979 ], [ -62.537506199999903, -9.717821 ], [ -62.5380355, -9.724266599999959 ], [ -62.537477899999899, -9.729270099999949 ], [ -62.5364784, -9.732215 ], [ -62.527651499999898, -9.73669289999998 ], [ -62.521979299999899, -9.742084099999939 ], [ -62.519671899999899, -9.743402599999969 ], [ -62.5160407, -9.747610799999959 ], [ -62.513647999999897, -9.75119689999997 ], [ -62.5120623, -9.752755399999961 ], [ -62.5083442, -9.754604499999971 ], [ -62.507779, -9.75535389999993 ], [ -62.507723499999898, -9.761424399999949 ], [ -62.5066567, -9.76238219999993 ], [ -62.5056754, -9.76290569999998 ], [ -62.500923499999899, -9.76425879999994 ], [ -62.498058399999898, -9.76773949999995 ], [ -62.4955932, -9.77206039999993 ], [ -62.493727299999897, -9.772686299999981 ], [ -62.489479399999901, -9.77204049999995 ], [ -62.483635, -9.77421149999998 ], [ -62.479946799999901, -9.774349899999949 ], [ -62.4776965, -9.77516769999994 ], [ -62.474936, -9.775213399999931 ], [ -62.471639, -9.77613939999998 ], [ -62.469495299999899, -9.77627639999997 ], [ -62.4661718, -9.77834389999998 ], [ -62.4632569, -9.778028399999929 ], [ -62.4630541, -9.778006399999979 ], [ -62.4604535, -9.77506009999996 ], [ -62.459529, -9.774452 ], [ -62.458663699999903, -9.774161 ], [ -62.4560034, -9.77395609999996 ], [ -62.4534469, -9.77596179999995 ], [ -62.4518044, -9.77884789999996 ], [ -62.449316699999898, -9.780229 ], [ -62.4412252, -9.778988899999939 ], [ -62.4358136, -9.780521399999939 ], [ -62.4337275, -9.782853799999939 ], [ -62.4321732, -9.785559699999959 ], [ -62.4297811, -9.78722749999997 ], [ -62.428043699999897, -9.789612099999941 ], [ -62.426078699999898, -9.79478029999996 ], [ -62.425334399999898, -9.800654099999971 ], [ -62.4242507, -9.80249829999997 ], [ -62.4227334, -9.803681099999951 ], [ -62.422616699999899, -9.80461559999998 ], [ -62.4228659, -9.80462739999996 ], [ -62.4231745, -9.805825299999981 ], [ -62.426083499999898, -9.80608579999995 ], [ -62.427000899999904, -9.806663799999971 ], [ -62.427481999999898, -9.807402799999981 ], [ -62.4281132, -9.80949119999997 ], [ -62.4287825, -9.810316 ], [ -62.4304212, -9.811286 ], [ -62.432275699999899, -9.81149279999994 ], [ -62.433388599999901, -9.811869 ], [ -62.4341654, -9.812331299999929 ], [ -62.4352003, -9.813937199999939 ], [ -62.4369996, -9.814661599999971 ], [ -62.4378409, -9.81583019999994 ], [ -62.4379752, -9.816874 ], [ -62.4386714, -9.81878979999993 ], [ -62.4396169, -9.81907079999996 ], [ -62.4417245, -9.818006699999961 ], [ -62.443840099999903, -9.81833209999996 ], [ -62.445557699999902, -9.819533699999971 ], [ -62.446007, -9.820737799999961 ], [ -62.4469172, -9.82138559999993 ], [ -62.4475846, -9.822167399999961 ], [ -62.4481716, -9.82444289999995 ], [ -62.4485877, -9.82531049999994 ], [ -62.4498071, -9.82688579999996 ], [ -62.450592, -9.82887539999996 ], [ -62.4508913, -9.829880199999931 ], [ -62.4497263, -9.831360399999941 ], [ -62.4492562, -9.832624 ], [ -62.450383299999899, -9.83412189999996 ], [ -62.450752099999903, -9.83620229999997 ], [ -62.450587799999902, -9.83722929999993 ], [ -62.4495004999999, -9.83793269999995 ], [ -62.4490855, -9.83874919999994 ], [ -62.449390999999899, -9.83963919999997 ], [ -62.450257899999897, -9.840051799999969 ], [ -62.450922299999903, -9.84068059999993 ], [ -62.451057999999897, -9.84174209999998 ], [ -62.450556499999898, -9.84273889999997 ], [ -62.452032, -9.84448589999994 ], [ -62.4521465, -9.84539489999997 ], [ -62.4519478, -9.84657219999997 ], [ -62.4525348, -9.84848249999993 ], [ -62.4521364, -9.849341599999949 ], [ -62.452638099999902, -9.85034129999997 ], [ -62.4528366, -9.85125719999996 ], [ -62.4525037, -9.85324489999994 ], [ -62.453037499999901, -9.855887699999929 ], [ -62.4530314, -9.85679079999994 ], [ -62.4532255, -9.85770949999994 ], [ -62.455283999999899, -9.861408799999939 ], [ -62.4552788, -9.862279299999949 ], [ -62.4552773, -9.86253479999993 ], [ -62.4551494, -9.862845799999951 ], [ -62.4541434, -9.86529219999994 ], [ -62.4527523, -9.866525899999941 ], [ -62.4525606999999, -9.86758749999996 ], [ -62.4531951, -9.869633599999929 ], [ -62.4533336, -9.87072719999998 ], [ -62.453286999999897, -9.87168409999998 ], [ -62.451834899999902, -9.87983939999998 ], [ -62.452453299999902, -9.882927499999941 ], [ -62.452117799999897, -9.884739 ], [ -62.4522244999999, -9.886088499999969 ], [ -62.451807599999903, -9.888564299999929 ], [ -62.449893, -9.892135899999969 ], [ -62.449728799999903, -9.89327119999996 ], [ -62.4500934, -9.89436189999998 ], [ -62.45075, -9.89510089999993 ], [ -62.451588, -9.89569569999998 ], [ -62.4521406, -9.89661079999996 ], [ -62.4528691, -9.89734529999993 ], [ -62.453473599999903, -9.898540099999931 ], [ -62.4535878, -9.899715799999971 ], [ -62.453034199999898, -9.90474009999997 ], [ -62.4533689, -9.906156399999929 ], [ -62.454082, -9.906889399999949 ], [ -62.455333499999902, -9.907637699999951 ], [ -62.4595874, -9.91095 ], [ -62.4601971, -9.912768399999949 ], [ -62.4607793, -9.91369439999994 ], [ -62.461839499999897, -9.91370459999996 ], [ -62.4633314, -9.915844599999961 ], [ -62.462781999999898, -9.91671559999997 ], [ -62.4625075, -9.91770679999996 ], [ -62.463114899999901, -9.918620499999969 ], [ -62.4630912, -9.919892699999931 ], [ -62.4622788, -9.921879799999941 ], [ -62.4620332, -9.923741 ], [ -62.461616299999903, -9.92455059999998 ], [ -62.462451799999897, -9.927196399999961 ], [ -62.4627551, -9.929468899999961 ], [ -62.463084099999897, -9.930514799999971 ], [ -62.4641659, -9.932134299999969 ], [ -62.4645838, -9.93305539999994 ], [ -62.4659766, -9.934425499999969 ], [ -62.4683644, -9.93817689999997 ], [ -62.470037299999902, -9.939335 ], [ -62.471582199999901, -9.94069409999997 ], [ -62.473534399999899, -9.94196149999993 ], [ -62.4757475, -9.944074299999951 ], [ -62.47712, -9.94581609999994 ], [ -62.479676299999902, -9.948035599999971 ], [ -62.4822017, -9.949697399999931 ], [ -62.4834279, -9.950232199999959 ], [ -62.485449399999901, -9.952862299999939 ], [ -62.487171799999899, -9.95419789999994 ], [ -62.4886602, -9.955934099999981 ], [ -62.4901768, -9.957141499999979 ], [ -62.4931118, -9.95813069999997 ], [ -62.4943105, -9.95792159999996 ], [ -62.4984795, -9.959669 ], [ -62.5007522, -9.96107919999997 ], [ -62.503033, -9.96324979999997 ], [ -62.5042293, -9.964973399999961 ], [ -62.5046412, -9.96611009999998 ], [ -62.504924199999898, -9.96824949999996 ], [ -62.5045889, -9.97207509999993 ], [ -62.5043057, -9.973178299999971 ], [ -62.5043415, -9.974582199999929 ], [ -62.5049518, -9.976185399999959 ], [ -62.505376, -9.978000099999971 ], [ -62.5058347, -9.978902099999971 ], [ -62.506479399999897, -9.980982199999969 ], [ -62.5066499, -9.982898099999939 ], [ -62.5075073, -9.986758899999931 ], [ -62.5088137, -9.988256799999929 ], [ -62.5097848999999, -9.988762799999961 ], [ -62.5093667, -9.991258199999949 ], [ -62.509479999999897, -9.99352979999998 ], [ -62.5093049, -9.99443609999997 ], [ -62.509475699999903, -9.995348099999941 ], [ -62.5103162, -9.997166399999969 ], [ -62.510975, -9.997937199999971 ], [ -62.5143701, -10.000340499999901 ], [ -62.5163654, -10.0027398 ], [ -62.5175915, -10.0049581 ], [ -62.5195098, -10.0060521 ], [ -62.5210675, -10.0073467 ], [ -62.522639599999899, -10.0095696 ], [ -62.524256799999897, -10.0127783 ], [ -62.5255341, -10.0158604 ], [ -62.5250348, -10.0173126999999 ], [ -62.5246453, -10.0199173 ], [ -62.525481699999901, -10.0218465999999 ], [ -62.5251187, -10.023411699999899 ], [ -62.525643699999897, -10.025296099999901 ], [ -62.5276215, -10.028296 ], [ -62.5266214, -10.0291276 ], [ -62.5272269, -10.031017899999901 ], [ -62.5288643, -10.0304457 ], [ -62.5303704, -10.032227299999899 ], [ -62.52959, -10.0360605 ], [ -62.5320872, -10.040584099999901 ], [ -62.5330034, -10.0422437999999 ], [ -62.5324750999999, -10.0431796999999 ], [ -62.5332514, -10.0476960999999 ], [ -62.5342271, -10.0521618 ], [ -62.536174699999897, -10.0529639 ], [ -62.5379179, -10.0519702 ], [ -62.5388391, -10.0533333999999 ], [ -62.540037599999899, -10.0531068999999 ], [ -62.541062199999899, -10.053856499999901 ], [ -62.541862799999898, -10.0527642 ], [ -62.5436702, -10.051027099999899 ], [ -62.5450039, -10.0501163 ], [ -62.5452622, -10.050185699999901 ], [ -62.5464479, -10.0505070999999 ], [ -62.547869799999901, -10.0514827 ], [ -62.5501689, -10.0521504 ], [ -62.5518646, -10.0531253 ], [ -62.5565304, -10.0549492 ], [ -62.5584271, -10.0545849 ], [ -62.560000499999902, -10.053973 ], [ -62.5614222, -10.055314399999901 ], [ -62.561979999999899, -10.0581101999999 ], [ -62.563782699999898, -10.0624237 ], [ -62.565200699999899, -10.0643090999999 ], [ -62.567362, -10.065280799999901 ], [ -62.5717165, -10.066608599999901 ], [ -62.572532099999897, -10.0678356999999 ], [ -62.5735683999999, -10.0703928 ], [ -62.5743967, -10.0730912999999 ], [ -62.5756155, -10.075680299999901 ], [ -62.5762491, -10.079289099999899 ], [ -62.574394299999902, -10.0815375 ], [ -62.5730348, -10.084050499999901 ], [ -62.572418899999903, -10.0858377 ], [ -62.5726729, -10.087836099999899 ], [ -62.5734497, -10.0886283999999 ], [ -62.5750341, -10.0895199 ], [ -62.5762566, -10.0908385 ], [ -62.576839699999901, -10.0931942 ], [ -62.576372299999903, -10.0944238 ], [ -62.5744518, -10.0964342 ], [ -62.570617, -10.0970589 ], [ -62.5691156, -10.0975341 ], [ -62.5680371999999, -10.0991918999999 ], [ -62.569085099999903, -10.1008727999999 ], [ -62.5715675, -10.1021706 ], [ -62.5741222999999, -10.103240099999899 ], [ -62.5773688, -10.1039268 ], [ -62.579449699999898, -10.104196199999899 ], [ -62.5839404, -10.1056773999999 ], [ -62.5856123, -10.106935 ], [ -62.586390499999901, -10.1087641 ], [ -62.5864493999999, -10.1106252 ], [ -62.585037499999899, -10.1141433999999 ], [ -62.5832328, -10.115770699999899 ], [ -62.5820024, -10.1166540999999 ], [ -62.580840899999899, -10.1179652 ], [ -62.5801395, -10.1193493 ], [ -62.5805364, -10.1209145 ], [ -62.5808961, -10.12443 ], [ -62.580225799999901, -10.1270416999999 ], [ -62.580032399999901, -10.129329799999899 ], [ -62.581867, -10.131374 ], [ -62.584947999999898, -10.1353032 ], [ -62.5851426, -10.1364351999999 ], [ -62.585146, -10.138295 ], [ -62.586840499999902, -10.1398426 ], [ -62.5875025, -10.1424029 ], [ -62.589338499999897, -10.1475816 ], [ -62.5907043, -10.152143599999899 ], [ -62.5909338, -10.1537106 ], [ -62.5912287, -10.1557245 ], [ -62.592002099999902, -10.1577020999999 ], [ -62.5932514, -10.1643362 ], [ -62.5933689, -10.1660901 ], [ -62.593316699999903, -10.1662873999999 ], [ -62.593032299999898, -10.1673565999999 ], [ -62.592559499999901, -10.1705795999999 ], [ -62.592531, -10.173961 ], [ -62.592227099999903, -10.178569799999901 ], [ -62.5926468, -10.1822885 ], [ -62.5930589, -10.183691199999901 ], [ -62.5951203, -10.185620899999901 ], [ -62.596699999999899, -10.1894551999999 ], [ -62.5988687, -10.1919743 ], [ -62.6027333, -10.194747 ], [ -62.6110437, -10.197843 ], [ -62.617526499999897, -10.1952443 ], [ -62.6222028, -10.2034351999999 ], [ -62.6313966, -10.2195376 ], [ -62.6495034, -10.2503068 ], [ -62.6681715, -10.2847024 ], [ -62.6697966999999, -10.2879159 ], [ -62.670554099999897, -10.287344699999901 ], [ -62.6707261, -10.2872179 ], [ -62.671742799999897, -10.2870483999999 ], [ -62.698322699999899, -10.2670846999999 ], [ -62.6988125, -10.2669036 ], [ -62.699204199999897, -10.2668039 ] ] ] ] } }
]
}
